{"type": "FeatureCollection", "features": [ {"type": "Feature", "properties": {"norad_id": 67030, "name": "STARLINK-36138", "group": "last-30-days", "lat": -11.328582603261157, "lon": 83.66528443835931, "alt_km": 375.7344739294722, "timestamp": "2025-12-26T20:30:44.702888+00:00", "meta": {"OBJECT_NAME": "STARLINK-36138", "OBJECT_ID": "2025-294A", "EPOCH": "2025-12-26T14:00:04.000032", "MEAN_MOTION": 15.65476144, "ECCENTRICITY": 0.00012979, "INCLINATION": 42.9997, "RA_OF_ASC_NODE": 97.7022, "ARG_OF_PERICENTER": 277.8719, "MEAN_ANOMALY": 335.1728, "EPHEMERIS_TYPE": 0, "CLASSIFICATION_TYPE": "U", "NORAD_CAT_ID": 67030, "ELEMENT_SET_NO": 999, "REV_AT_EPOCH": 233, "BSTAR": -0.021332294, "MEAN_MOTION_DOT": -0.01940282, "MEAN_MOTION_DDOT": 0}, "tle": {"line1": "1 67030U 25294A   25360.58337963 -.01940282  00000+0 -21332-1 0  9997", "line2": "2 67030  42.9997  97.7022 0001297 277.8719 335.1728 15.65476144  2335"}}, "geometry": {"type": "Point", "coordinates": [83.66528443835931, -11.328582603261157]}}, {"type": "Feature", "properties": {"norad_id": 67031, "name": "STARLINK-36150", "group": "last-30-days", "lat": -10.093096913429603, "lon": 85.06265014486627, "alt_km": 375.59522605161874, "timestamp": "2025-12-26T20:30:44.702897+00:00", "meta": {"OBJECT_NAME": "STARLINK-36150", "OBJECT_ID": "2025-294B", "EPOCH": "2025-12-26T14:00:04.000032", "MEAN_MOTION": 15.65485907, "ECCENTRICITY": 0.00013361, "INCLINATION": 42.9994, "RA_OF_ASC_NODE": 97.6971, "ARG_OF_PERICENTER": 278.1722, "MEAN_ANOMALY": 336.7154, "EPHEMERIS_TYPE": 0, "CLASSIFICATION_TYPE": "U", "NORAD_CAT_ID": 67031, "ELEMENT_SET_NO": 999, "REV_AT_EPOCH": 252, "BSTAR": -0.021389922, "MEAN_MOTION_DOT": -0.01945613, "MEAN_MOTION_DDOT": 0}, "tle": {"line1": "1 67031U 25294B   25360.58337963 -.01945613  00000+0 -21390-1 0  9995", "line2": "2 67031  42.9994  97.6971 0001336 278.1722 336.7154 15.65485907  2525"}}, "geometry": {"type": "Point", "coordinates": [85.06265014486627, -10.093096913429603]}}, {"type": "Feature", "properties": {"norad_id": 67032, "name": "STARLINK-36131", "group": "last-30-days", "lat": -7.400910543702153, "lon": 88.05229196247983, "alt_km": 375.48475009194317, "timestamp": "2025-12-26T20:30:44.702906+00:00", "meta": {"OBJECT_NAME": "STARLINK-36131", "OBJECT_ID": "2025-294C", "EPOCH": "2025-12-26T14:00:04.000032", "MEAN_MOTION": 15.65469593, "ECCENTRICITY": 0.00012989, "INCLINATION": 42.9993, "RA_OF_ASC_NODE": 97.687, "ARG_OF_PERICENTER": 274.0096, "MEAN_ANOMALY": 344.8978, "EPHEMERIS_TYPE": 0, "CLASSIFICATION_TYPE": "U", "NORAD_CAT_ID": 67032, "ELEMENT_SET_NO": 999, "REV_AT_EPOCH": 233, "BSTAR": -0.021362806, "MEAN_MOTION_DOT": -0.01942277, "MEAN_MOTION_DDOT": 0}, "tle": {"line1": "1 67032U 25294C   25360.58337963 -.01942277  00000+0 -21363-1 0  9999", "line2": "2 67032  42.9993  97.6870 0001298 274.0096 344.8978 15.65469593  2335"}}, "geometry": {"type": "Point", "coordinates": [88.05229196247983, -7.400910543702153]}}, {"type": "Feature", "properties": {"norad_id": 67033, "name": "STARLINK-36137", "group": "last-30-days", "lat": -8.755867935077342, "lon": 86.5565749391366, "alt_km": 375.4976534729494, "timestamp": "2025-12-26T20:30:44.702915+00:00", "meta": {"OBJECT_NAME": "STARLINK-36137", "OBJECT_ID": "2025-294D", "EPOCH": "2025-12-26T14:00:04.000032", "MEAN_MOTION": 15.65477395, "ECCENTRICITY": 0.00012818, "INCLINATION": 42.9994, "RA_OF_ASC_NODE": 97.6923, "ARG_OF_PERICENTER": 279.1604, "MEAN_ANOMALY": 337.7295, "EPHEMERIS_TYPE": 0, "CLASSIFICATION_TYPE": "U", "NORAD_CAT_ID": 67033, "ELEMENT_SET_NO": 999, "REV_AT_EPOCH": 233, "BSTAR": -0.021377337, "MEAN_MOTION_DOT": -0.01943972, "MEAN_MOTION_DDOT": 0}, "tle": {"line1": "1 67033U 25294D   25360.58337963 -.01943972  00000+0 -21377-1 0  9998", "line2": "2 67033  42.9994  97.6923 0001281 279.1604 337.7295 15.65477395  2331"}}, "geometry": {"type": "Point", "coordinates": [86.5565749391366, -8.755867935077342]}}, {"type": "Feature", "properties": {"norad_id": 67034, "name": "STARLINK-36140", "group": "last-30-days", "lat": -5.999345435491861, "lon": 89.58439799503262, "alt_km": 375.35742785791354, "timestamp": "2025-12-26T20:30:44.702924+00:00", "meta": {"OBJECT_NAME": "STARLINK-36140", "OBJECT_ID": "2025-294E", "EPOCH": "2025-12-26T14:00:04.000032", "MEAN_MOTION": 15.65455074, "ECCENTRICITY": 0.00012463, "INCLINATION": 42.9993, "RA_OF_ASC_NODE": 97.6818, "ARG_OF_PERICENTER": 276.2734, "MEAN_ANOMALY": 344.7204, "EPHEMERIS_TYPE": 0, "CLASSIFICATION_TYPE": "U", "NORAD_CAT_ID": 67034, "ELEMENT_SET_NO": 999, "REV_AT_EPOCH": 233, "BSTAR": -0.02132614, "MEAN_MOTION_DOT": -0.01938291, "MEAN_MOTION_DDOT": 0}, "tle": {"line1": "1 67034U 25294E   25360.58337963 -.01938291  00000+0 -21326-1 0  9991", "line2": "2 67034  42.9993  97.6818 0001246 276.2734 344.7204 15.65455074  2335"}}, "geometry": {"type": "Point", "coordinates": [89.58439799503262, -5.999345435491861]}}, {"type": "Feature", "properties": {"norad_id": 67035, "name": "STARLINK-36085", "group": "last-30-days", "lat": -3.1659430431225286, "lon": 92.64644371588754, "alt_km": 375.1956615813251, "timestamp": "2025-12-26T20:30:44.702933+00:00", "meta": {"OBJECT_NAME": "STARLINK-36085", "OBJECT_ID": "2025-294F", "EPOCH": "2025-12-26T14:00:04.000032", "MEAN_MOTION": 15.65427784, "ECCENTRICITY": 0.00012401, "INCLINATION": 42.9993, "RA_OF_ASC_NODE": 97.6711, "ARG_OF_PERICENTER": 274.7015, "MEAN_ANOMALY": 350.4923, "EPHEMERIS_TYPE": 0, "CLASSIFICATION_TYPE": "U", "NORAD_CAT_ID": 67035, "ELEMENT_SET_NO": 999, "REV_AT_EPOCH": 233, "BSTAR": -0.021394367, "MEAN_MOTION_DOT": -0.01941862, "MEAN_MOTION_DDOT": 0}, "tle": {"line1": "1 67035U 25294F   25360.58337963 -.01941862  00000+0 -21394-1 0  9995", "line2": "2 67035  42.9993  97.6711 0001240 274.7015 350.4923 15.65427784  2336"}}, "geometry": {"type": "Point", "coordinates": [92.64644371588754, -3.1659430431225286]}}, {"type": "Feature", "properties": {"norad_id": 67036, "name": "STARLINK-36125", "group": "last-30-days", "lat": -4.58444705019234, "lon": 91.11834526438554, "alt_km": 375.25786956000775, "timestamp": "2025-12-26T20:30:44.702941+00:00", "meta": {"OBJECT_NAME": "STARLINK-36125", "OBJECT_ID": "2025-294G", "EPOCH": "2025-12-26T14:00:04.000032", "MEAN_MOTION": 15.65440711, "ECCENTRICITY": 0.00013179, "INCLINATION": 42.9993, "RA_OF_ASC_NODE": 97.6765, "ARG_OF_PERICENTER": 276.3308, "MEAN_ANOMALY": 346.7635, "EPHEMERIS_TYPE": 0, "CLASSIFICATION_TYPE": "U", "NORAD_CAT_ID": 67036, "ELEMENT_SET_NO": 999, "REV_AT_EPOCH": 252, "BSTAR": -0.021390036, "MEAN_MOTION_DOT": -0.01942469, "MEAN_MOTION_DDOT": 0}, "tle": {"line1": "1 67036U 25294G   25360.58337963 -.01942469  00000+0 -21390-1 0  9996", "line2": "2 67036  42.9993  97.6765 0001317 276.3308 346.7635 15.65440711  2528"}}, "geometry": {"type": "Point", "coordinates": [91.11834526438554, -4.58444705019234]}}, {"type": "Feature", "properties": {"norad_id": 67037, "name": "STARLINK-35732", "group": "last-30-days", "lat": -1.7052863202310875, "lon": 94.21325557888831, "alt_km": 375.0461582776179, "timestamp": "2025-12-26T20:30:44.702952+00:00", "meta": {"OBJECT_NAME": "STARLINK-35732", "OBJECT_ID": "2025-294H", "EPOCH": "2025-12-26T14:00:04.000032", "MEAN_MOTION": 15.65407655, "ECCENTRICITY": 0.0001293, "INCLINATION": 42.9995, "RA_OF_ASC_NODE": 97.6657, "ARG_OF_PERICENTER": 277.4052, "MEAN_ANOMALY": 349.9522, "EPHEMERIS_TYPE": 0, "CLASSIFICATION_TYPE": "U", "NORAD_CAT_ID": 67037, "ELEMENT_SET_NO": 999, "REV_AT_EPOCH": 244, "BSTAR": -0.021393579, "MEAN_MOTION_DOT": -0.01940441, "MEAN_MOTION_DDOT": 0}, "tle": {"line1": "1 67037U 25294H   25360.58337963 -.01940441  00000+0 -21394-1 0  9999", "line2": "2 67037  42.9995  97.6657 0001293 277.4052 349.9522 15.65407655  2443"}}, "geometry": {"type": "Point", "coordinates": [94.21325557888831, -1.7052863202310875]}}, {"type": "Feature", "properties": {"norad_id": 67038, "name": "STARLINK-35775", "group": "last-30-days", "lat": -0.3327515611081068, "lon": 95.68187515309752, "alt_km": 374.929447226963, "timestamp": "2025-12-26T20:30:44.702962+00:00", "meta": {"OBJECT_NAME": "STARLINK-35775", "OBJECT_ID": "2025-294J", "EPOCH": "2025-12-26T14:00:04.000032", "MEAN_MOTION": 15.65399142, "ECCENTRICITY": 0.00013304, "INCLINATION": 42.9994, "RA_OF_ASC_NODE": 97.6605, "ARG_OF_PERICENTER": 277.3479, "MEAN_ANOMALY": 352.0315, "EPHEMERIS_TYPE": 0, "CLASSIFICATION_TYPE": "U", "NORAD_CAT_ID": 67038, "ELEMENT_SET_NO": 999, "REV_AT_EPOCH": 244, "BSTAR": -0.02142621, "MEAN_MOTION_DOT": -0.01942488, "MEAN_MOTION_DDOT": 0}, "tle": {"line1": "1 67038U 25294J   25360.58337963 -.01942488  00000+0 -21426-1 0  9999", "line2": "2 67038  42.9994  97.6605 0001330 277.3479 352.0315 15.65399142  2446"}}, "geometry": {"type": "Point", "coordinates": [95.68187515309752, -0.3327515611081068]}}, {"type": "Feature", "properties": {"norad_id": 67039, "name": "STARLINK-35705", "group": "last-30-days", "lat": 2.4484042350320894, "lon": 98.65882225815128, "alt_km": 374.6614947538437, "timestamp": "2025-12-26T20:30:44.702971+00:00", "meta": {"OBJECT_NAME": "STARLINK-35705", "OBJECT_ID": "2025-294K", "EPOCH": "2025-12-26T14:00:04.000032", "MEAN_MOTION": 15.65379079, "ECCENTRICITY": 0.00013678, "INCLINATION": 42.9991, "RA_OF_ASC_NODE": 97.6502, "ARG_OF_PERICENTER": 278.7489, "MEAN_ANOMALY": 354.7301, "EPHEMERIS_TYPE": 0, "CLASSIFICATION_TYPE": "U", "NORAD_CAT_ID": 67039, "ELEMENT_SET_NO": 999, "REV_AT_EPOCH": 233, "BSTAR": -0.021455112, "MEAN_MOTION_DOT": -0.01943434, "MEAN_MOTION_DDOT": 0}, "tle": {"line1": "1 67039U 25294K   25360.58337963 -.01943434  00000+0 -21455-1 0  9994", "line2": "2 67039  42.9991  97.6502 0001367 278.7489 354.7301 15.65379079  2335"}}, "geometry": {"type": "Point", "coordinates": [98.65882225815128, 2.4484042350320894]}}]}